[{"OBJECT_NAME":"ONEWEB-0141","OBJECT_ID":"2020-100AF","EPOCH":"2026-03-09T21:45:58.352832","MEAN_MOTION":13.12442495,"ECCENTRICITY":0.00018574,"INCLINATION":87.9004,"RA_OF_ASC_NODE":10.3501,"ARG_OF_PERICENTER":69.0423,"MEAN_ANOMALY":291.0905,"EPHEMERIS_TYPE":0,"CLASSIFICATION_TYPE":"U","NORAD_CAT_ID":47287,"ELEMENT_SET_NO":999,"REV_AT_EPOCH":25165,"BSTAR":0.0014075556,"MEAN_MOTION_DOT":5.19e-6,"MEAN_MOTION_DDOT":0},{"OBJECT_NAME":"THORAD AGENA D DEB","OBJECT_ID":"1970-025X","EPOCH":"2026-03-09T09:57:17.080128","MEAN_MOTION":13.33098389,"ECCENTRICITY":0.01124783,"INCLINATION":99.8894,"RA_OF_ASC_NODE":139.1894,"ARG_OF_PERICENTER":314.0154,"MEAN_ANOMALY":105.243,"EPHEMERIS_TYPE":0,"CLASSIFICATION_TYPE":"U","NORAD_CAT_ID":4639,"ELEMENT_SET_NO":999,"REV_AT_EPOCH":71598,"BSTAR":0.00029614951,"MEAN_MOTION_DOT":1.07e-6,"MEAN_MOTION_DDOT":0}]
